{"type": "FeatureCollection", "features": [ {"type": "Feature", "properties": {"norad_id": 66707, "name": "FLOCK 4H-4", "group": "last-30-days", "lat": -82.4458177904847, "lon": 148.87793303006453, "alt_km": 519.2593433037482, "timestamp": "2025-12-22T22:44:19.650200+00:00", "meta": {"OBJECT_NAME": "FLOCK 4H-4", "OBJECT_ID": "2025-276AT", "EPOCH": "2025-12-22T12:02:57.639264", "MEAN_MOTION": 15.17204393, "ECCENTRICITY": 0.00036285, "INCLINATION": 97.4433, "RA_OF_ASC_NODE": 68.094, "ARG_OF_PERICENTER": 254.6123, "MEAN_ANOMALY": 105.471, "EPHEMERIS_TYPE": 0, "CLASSIFICATION_TYPE": "U", "NORAD_CAT_ID": 66707, "ELEMENT_SET_NO": 999, "REV_AT_EPOCH": 360, "BSTAR": 0.00052851164, "MEAN_MOTION_DOT": 0.00010446, "MEAN_MOTION_DDOT": 0}, "tle": {"line1": "1 66707U 25276AT  25356.50205601  .00010446  00000+0  52851-3 0  9996", "line2": "2 66707  97.4433  68.0940 0003628 254.6123 105.4710 15.17204393  3609"}}, "geometry": {"type": "Point", "coordinates": [148.87793303006453, -82.4458177904847]}}, {"type": "Feature", "properties": {"norad_id": 66708, "name": "FLOCK 4H-5", "group": "last-30-days", "lat": -6.06107705915613, "lon": 69.34669006454689, "alt_km": 515.7706861609704, "timestamp": "2025-12-22T22:44:19.650211+00:00", "meta": {"OBJECT_NAME": "FLOCK 4H-5", "OBJECT_ID": "2025-276AU", "EPOCH": "2025-12-22T10:06:38.796768", "MEAN_MOTION": 15.18163168, "ECCENTRICITY": 0.00011913, "INCLINATION": 97.4386, "RA_OF_ASC_NODE": 68.0345, "ARG_OF_PERICENTER": 130.2403, "MEAN_ANOMALY": 229.8935, "EPHEMERIS_TYPE": 0, "CLASSIFICATION_TYPE": "U", "NORAD_CAT_ID": 66708, "ELEMENT_SET_NO": 999, "REV_AT_EPOCH": 359, "BSTAR": 0.00059499817, "MEAN_MOTION_DOT": 0.00012098, "MEAN_MOTION_DDOT": 0}, "tle": {"line1": "1 66708U 25276AU  25356.42128237  .00012098  00000+0  59500-3 0  9990", "line2": "2 66708  97.4386  68.0345 0001191 130.2403 229.8935 15.18163168  3592"}}, "geometry": {"type": "Point", "coordinates": [69.34669006454689, -6.06107705915613]}}, {"type": "Feature", "properties": {"norad_id": 66709, "name": "FLOCK 4H-6", "group": "last-30-days", "lat": -25.893646592992116, "lon": 72.2007730034869, "alt_km": 518.9735677238968, "timestamp": "2025-12-22T22:44:19.650225+00:00", "meta": {"OBJECT_NAME": "FLOCK 4H-6", "OBJECT_ID": "2025-276AV", "EPOCH": "2025-12-22T11:46:43.601088", "MEAN_MOTION": 15.17903075, "ECCENTRICITY": 0.00026554, "INCLINATION": 97.4435, "RA_OF_ASC_NODE": 68.1129, "ARG_OF_PERICENTER": 209.6515, "MEAN_ANOMALY": 150.4568, "EPHEMERIS_TYPE": 0, "CLASSIFICATION_TYPE": "U", "NORAD_CAT_ID": 66709, "ELEMENT_SET_NO": 999, "REV_AT_EPOCH": 360, "BSTAR": 0.00043620223, "MEAN_MOTION_DOT": 8.782e-05, "MEAN_MOTION_DDOT": 0}, "tle": {"line1": "1 66709U 25276AV  25356.49078242  .00008782  00000+0  43620-3 0  9999", "line2": "2 66709  97.4435  68.1129 0002655 209.6515 150.4568 15.17903075  3601"}}, "geometry": {"type": "Point", "coordinates": [72.2007730034869, -25.893646592992116]}}, {"type": "Feature", "properties": {"norad_id": 66710, "name": "FLOCK 4H-7", "group": "last-30-days", "lat": -65.36765690818345, "lon": 85.08153673118282, "alt_km": 519.9611395370266, "timestamp": "2025-12-22T22:44:19.650236+00:00", "meta": {"OBJECT_NAME": "FLOCK 4H-7", "OBJECT_ID": "2025-276AW", "EPOCH": "2025-12-22T11:57:11.312640", "MEAN_MOTION": 15.17478885, "ECCENTRICITY": 0.00010727, "INCLINATION": 97.4392, "RA_OF_ASC_NODE": 68.0831, "ARG_OF_PERICENTER": 297.9139, "MEAN_ANOMALY": 62.1986, "EPHEMERIS_TYPE": 0, "CLASSIFICATION_TYPE": "U", "NORAD_CAT_ID": 66710, "ELEMENT_SET_NO": 999, "REV_AT_EPOCH": 360, "BSTAR": 0.00030568752, "MEAN_MOTION_DOT": 6.058e-05, "MEAN_MOTION_DDOT": 0}, "tle": {"line1": "1 66710U 25276AW  25356.49804760  .00006058  00000+0  30569-3 0  9995", "line2": "2 66710  97.4392  68.0831 0001072 297.9139  62.1986 15.17478885  3607"}}, "geometry": {"type": "Point", "coordinates": [85.08153673118282, -65.36765690818345]}}, {"type": "Feature", "properties": {"norad_id": 66711, "name": "FLOCK 4H-8", "group": "last-30-days", "lat": -66.53078293132948, "lon": 86.06933288050112, "alt_km": 519.1435605059914, "timestamp": "2025-12-22T22:44:19.650246+00:00", "meta": {"OBJECT_NAME": "FLOCK 4H-8", "OBJECT_ID": "2025-276AX", "EPOCH": "2025-12-22T13:32:27.991968", "MEAN_MOTION": 15.17477943, "ECCENTRICITY": 0.00024634, "INCLINATION": 97.4432, "RA_OF_ASC_NODE": 68.1683, "ARG_OF_PERICENTER": 270.5774, "MEAN_ANOMALY": 89.5178, "EPHEMERIS_TYPE": 0, "CLASSIFICATION_TYPE": "U", "NORAD_CAT_ID": 66711, "ELEMENT_SET_NO": 999, "REV_AT_EPOCH": 361, "BSTAR": 0.00057914363, "MEAN_MOTION_DOT": 0.00011544, "MEAN_MOTION_DDOT": 0}, "tle": {"line1": "1 66711U 25276AX  25356.56421287  .00011544  00000+0  57914-3 0  9992", "line2": "2 66711  97.4432  68.1683 0002463 270.5774  89.5178 15.17477943  3617"}}, "geometry": {"type": "Point", "coordinates": [86.06933288050112, -66.53078293132948]}}, {"type": "Feature", "properties": {"norad_id": 66712, "name": "FLOCK 4H-9", "group": "last-30-days", "lat": -26.93783420766403, "lon": 72.368415417758, "alt_km": 518.7563187138794, "timestamp": "2025-12-22T22:44:19.650259+00:00", "meta": {"OBJECT_NAME": "FLOCK 4H-9", "OBJECT_ID": "2025-276AY", "EPOCH": "2025-12-22T10:12:04.751136", "MEAN_MOTION": 15.17906818, "ECCENTRICITY": 0.00026903, "INCLINATION": 97.4427, "RA_OF_ASC_NODE": 68.0458, "ARG_OF_PERICENTER": 219.2739, "MEAN_ANOMALY": 140.83, "EPHEMERIS_TYPE": 0, "CLASSIFICATION_TYPE": "U", "NORAD_CAT_ID": 66712, "ELEMENT_SET_NO": 999, "REV_AT_EPOCH": 359, "BSTAR": 0.00046434918, "MEAN_MOTION_DOT": 9.355e-05, "MEAN_MOTION_DDOT": 0}, "tle": {"line1": "1 66712U 25276AY  25356.42505499  .00009355  00000+0  46435-3 0  9999", "line2": "2 66712  97.4427  68.0458 0002690 219.2739 140.8300 15.17906818  3597"}}, "geometry": {"type": "Point", "coordinates": [72.368415417758, -26.93783420766403]}}, {"type": "Feature", "properties": {"norad_id": 66713, "name": "FLOCK 4H-10", "group": "last-30-days", "lat": -81.67276061302117, "lon": 131.80062732890573, "alt_km": 520.7512266129497, "timestamp": "2025-12-22T22:44:19.650272+00:00", "meta": {"OBJECT_NAME": "FLOCK 4H-10", "OBJECT_ID": "2025-276AZ", "EPOCH": "2025-12-21T12:17:32.542944", "MEAN_MOTION": 15.17170539, "ECCENTRICITY": 0.00026878, "INCLINATION": 97.4432, "RA_OF_ASC_NODE": 67.1151, "ARG_OF_PERICENTER": 252.9711, "MEAN_ANOMALY": 107.1228, "EPHEMERIS_TYPE": 0, "CLASSIFICATION_TYPE": "U", "NORAD_CAT_ID": 66713, "ELEMENT_SET_NO": 999, "REV_AT_EPOCH": 345, "BSTAR": -0.0036543614, "MEAN_MOTION_DOT": -0.00071864, "MEAN_MOTION_DDOT": 0}, "tle": {"line1": "1 66713U 25276AZ  25355.51218221 -.00071864  00000+0 -36544-2 0  9998", "line2": "2 66713  97.4432  67.1151 0002687 252.9711 107.1228 15.17170539  3457"}}, "geometry": {"type": "Point", "coordinates": [131.80062732890573, -81.67276061302117]}}, {"type": "Feature", "properties": {"norad_id": 66714, "name": "FLOCK 4H-11", "group": "last-30-days", "lat": -55.7896749363115, "lon": 79.63024928195176, "alt_km": 518.279651875856, "timestamp": "2025-12-22T22:44:19.650284+00:00", "meta": {"OBJECT_NAME": "FLOCK 4H-11", "OBJECT_ID": "2025-276BA", "EPOCH": "2025-12-22T10:19:45.302880", "MEAN_MOTION": 15.17776754, "ECCENTRICITY": 0.00021441, "INCLINATION": 97.4418, "RA_OF_ASC_NODE": 68.0373, "ARG_OF_PERICENTER": 279.3438, "MEAN_ANOMALY": 80.7553, "EPHEMERIS_TYPE": 0, "CLASSIFICATION_TYPE": "U", "NORAD_CAT_ID": 66714, "ELEMENT_SET_NO": 999, "REV_AT_EPOCH": 359, "BSTAR": 0.00072225357, "MEAN_MOTION_DOT": 0.00014543, "MEAN_MOTION_DDOT": 0}, "tle": {"line1": "1 66714U 25276BA  25356.43038545  .00014543  00000+0  72225-3 0  9996", "line2": "2 66714  97.4418  68.0373 0002144 279.3438  80.7553 15.17776754  3598"}}, "geometry": {"type": "Point", "coordinates": [79.63024928195176, -55.7896749363115]}}, {"type": "Feature", "properties": {"norad_id": 66715, "name": "FLOCK 4H-12", "group": "last-30-days", "lat": -15.534334792371165, "lon": 70.62828927808796, "alt_km": 517.7108071877219, "timestamp": "2025-12-22T22:44:19.650294+00:00", "meta": {"OBJECT_NAME": "FLOCK 4H-12", "OBJECT_ID": "2025-276BB", "EPOCH": "2025-12-22T11:44:02.367456", "MEAN_MOTION": 15.18071845, "ECCENTRICITY": 0.00018864, "INCLINATION": 97.4393, "RA_OF_ASC_NODE": 68.096, "ARG_OF_PERICENTER": 187.0218, "MEAN_ANOMALY": 173.099, "EPHEMERIS_TYPE": 0, "CLASSIFICATION_TYPE": "U", "NORAD_CAT_ID": 66715, "ELEMENT_SET_NO": 999, "REV_AT_EPOCH": 391, "BSTAR": 0.0005973274, "MEAN_MOTION_DOT": 0.00012114, "MEAN_MOTION_DDOT": 0}, "tle": {"line1": "1 66715U 25276BB  25356.48891629  .00012114  00000+0  59733-3 0  9993", "line2": "2 66715  97.4393  68.0960 0001886 187.0218 173.0990 15.18071845  3913"}}, "geometry": {"type": "Point", "coordinates": [70.62828927808796, -15.534334792371165]}}, {"type": "Feature", "properties": {"norad_id": 66716, "name": "FLOCK 4H-13", "group": "last-30-days", "lat": -4.320409042020009, "lon": 69.13208393233185, "alt_km": 515.9222124309026, "timestamp": "2025-12-22T22:44:19.650305+00:00", "meta": {"OBJECT_NAME": "FLOCK 4H-13", "OBJECT_ID": "2025-276BC", "EPOCH": "2025-12-22T11:41:06.268704", "MEAN_MOTION": 15.18184799, "ECCENTRICITY": 0.0001642, "INCLINATION": 97.443, "RA_OF_ASC_NODE": 68.1131, "ARG_OF_PERICENTER": 148.9257, "MEAN_ANOMALY": 211.2074, "EPHEMERIS_TYPE": 0, "CLASSIFICATION_TYPE": "U", "NORAD_CAT_ID": 66716, "ELEMENT_SET_NO": 999, "REV_AT_EPOCH": 360, "BSTAR": 0.00058523326, "MEAN_MOTION_DOT": 0.00011906, "MEAN_MOTION_DDOT": 0}, "tle": {"line1": "1 66716U 25276BC  25356.48687811  .00011906  00000+0  58523-3 0  9994", "line2": "2 66716  97.4430  68.1131 0001642 148.9257 211.2074 15.18184799  3603"}}, "geometry": {"type": "Point", "coordinates": [69.13208393233185, -4.320409042020009]}}]}